OBJECT_NAME,OBJECT_ID,EPOCH,MEAN_MOTION,ECCENTRICITY,INCLINATION,RA_OF_ASC_NODE,ARG_OF_PERICENTER,MEAN_ANOMALY,EPHEMERIS_TYPE,CLASSIFICATION_TYPE,NORAD_CAT_ID,ELEMENT_SET_NO,REV_AT_EPOCH,BSTAR,MEAN_MOTION_DOT,MEAN_MOTION_DDOT
COSMOS 2401,2003-037B,2025-11-05T07:29:48.458688,12.45497852,.00224167,82.4656,106.7146,179.1346,180.9778,0,U,27869,999,990,.16881787E-4,.12E-6,0
USA 170,2003-040A,2025-11-04T23:14:52.133280,1.00272753,.00026666,10.0221,50.0247,202.3583,164.9598,0,U,27875,999,3074,0,.138E-5,0
MOZHAETS 4 (RS-22),2003-042A,2025-11-05T08:33:33.156864,14.72801714,.00102722,98.3371,122.5671,257.5808,218.9998,0,U,27939,999,18259,.2634112E-3,.1632E-4,0
LARETS,2003-042F,2025-11-05T06:09:35.018784,14.63805222,.0012659,98.3879,102.1354,20.6750,339.4961,0,U,27944,999,18060,.26903122E-4,.9E-6,0
GALAXY 13 (HORIZONS-1),2003-044A,2025-11-05T06:13:57.770688,1.00272936,.00019451,0.8365,86.9373,129.8755,131.4383,0,U,27954,999,4432,0,.145E-5,0
IRS-P6 (RESOURCESAT-1),2003-046A,2025-11-05T08:36:50.663808,14.36048322,.00630317,98.2235,351.4868,294.3375,75.6817,0,U,28051,999,14840,.73432478E-4,.177E-5,0
DMSP 5D-3 F16 (USA 172),2003-048A,2025-11-05T07:12:07.999776,14.14403235,.000809,99.0081,326.4559,65.2609,104.4769,0,U,28054,999,13783,.11063109E-3,.166E-5,0
CHUANGXIN 1 (CX-1),2003-049B,2025-11-05T05:29:27.867264,14.48412605,.00132177,98.5258,201.4008,138.2561,221.9642,0,U,28058,999,16385,.10855445E-3,.361E-5,0
YAMAL 202,2003-053A,2025-11-04T13:46:38.864352,1.00271209,.000656,5.7751,73.6629,161.4378,179.1878,0,U,28089,999,8044,0,-.65E-6,0
UFO 11 (USA 174),2003-057A,2025-11-04T18:51:38.615904,1.00272633,.00047601,8.7295,34.8637,197.9446,169.9522,0,U,28117,999,8020,0,-.94E-6,0
NAVSTAR 53 (USA 175),2003-058A,2025-11-03T19:24:28.390752,1.92678423,.00019406,54.8863,31.6230,290.8850,69.1230,0,U,28129,999,16012,0,-.75E-6,0
USA 176 (DSP 22),2004-004A,2025-11-05T01:34:36.920640,1.00266598,.00040505,11.7559,27.6732,227.5288,76.4118,0,U,28158,999,3068,0,-.149E-5,0
ABS-4 (MOBISAT-1),2004-007A,2025-11-04T23:25:21.127872,1.00273196,.00060192,5.4726,74.7322,158.0375,224.0363,0,U,28184,999,5009,0,.52E-6,0
EUTELSAT 7A,2004-008A,2025-11-05T06:20:09.089376,1.00274118,.00015204,5.2596,74.6698,186.7664,99.1900,0,U,28187,999,7910,0,.115E-5,0
NAVSTAR 54 (USA 177),2004-009A,2025-11-05T01:18:06.743808,2.00562078,.01079014,55.0192,284.7374,166.9470,214.6535,0,U,28190,999,15845,0,-.29E-6,0
SHIYAN-1 (SY-1),2004-012A,2025-11-05T03:00:27.688608,15.26720279,.00078776,97.8997,8.4764,89.4344,270.7796,0,U,28220,999,17682,.48355456E-3,.12646E-3,0
AMC-11,2004-017A,2025-11-05T00:19:08.067648,1.00269988,.00034536,0.0576,69.1348,161.3914,67.6871,0,U,28252,999,7862,0,-.37E-6,0
INTELSAT 10-02,2004-022A,2025-11-05T02:33:17.709408,1.00270246,.00012807,0.0421,72.8782,190.0947,178.9814,0,U,28358,999,7830,0,.1E-7,0
NAVSTAR 55 (USA 178),2004-023A,2025-11-04T18:38:52.697184,2.00570708,.01550909,54.7108,95.7849,295.1195,62.4769,0,U,28361,999,15653,0,.33E-6,0
APRIZESAT 2,2004-025A,2025-11-05T05:28:40.463040,14.37890571,.01052712,98.0823,123.1614,205.7068,153.8866,0,U,28366,999,11945,.13236205E-3,.383E-5,0
SAUDICOMSAT 1,2004-025D,2025-11-04T22:54:48.951936,14.55208489,.00321584,98.5778,308.0766,352.5343,7.5370,0,U,28369,999,13151,.14308678E-3,.573E-5,0
SAUDICOMSAT 2,2004-025E,2025-11-05T06:05:33.200736,14.49762694,.00549853,98.6666,310.1797,216.9160,142.8244,0,U,28370,999,12765,.12339025E-3,.435E-5,0
SAUDISAT 2,2004-025F,2025-11-05T05:24:38.187936,14.56472366,.00235634,98.5402,298.6006,264.6557,95.1951,0,U,28371,999,13314,.1160749E-3,.468E-5,0
APRIZESAT 1,2004-025G,2025-11-04T22:39:17.491680,14.51583846,.00457634,98.6316,308.5850,116.3895,244.2007,0,U,28372,999,12937,.98299043E-4,.35E-5,0
AURA,2004-026A,2025-11-05T04:29:56.770368,14.60806659,.00011439,98.3121,259.2553,67.7496,292.3825,0,U,28376,999,13350,.29198856E-3,.1378E-4,0
ANIK F2,2004-027A,2025-11-05T03:01:41.793888,1.00271198,.00027621,2.7025,82.4331,95.4388,161.0800,0,U,28378,999,3901,0,-.37E-6,0
COSMOS 2407,2004-028A,2025-11-05T05:42:02.871072,13.76307402,.00396288,82.9608,240.6560,156.7918,313.8107,0,U,28380,999,6907,.56315022E-4,.71E-6,0
SHIJIAN-6 01A (SJ-6 01A),2004-035A,2025-11-05T00:40:59.851200,15.13855830,.00065405,97.6090,330.9010,176.2200,183.9082,0,U,28413,999,15350,.4624647E-3,.8302E-4,0
SHIJIAN-6 01B (SJ-6 01B),2004-035B,2025-11-05T08:03:27.120384,15.04495761,.00050311,97.6200,325.1584,166.4913,193.6449,0,U,28414,999,15314,.42377713E-3,.5875E-4,0
COSMOS 2408,2004-037A,2025-11-05T05:53:43.428192,12.45673393,.00163596,82.4804,106.1643,41.8442,318.3887,0,U,28419,999,96002,-.8350295E-5,.9E-7,0
