27869,COSMOS 2401,2003,115.62,225.0,+,82.47,Active,1,LEO,Russia,Russia/USSR,Military,Communications,Kosmos,1 27869U 03037B   25309.31236642  .00000012  00000+0  16882-4 0  9992,2 27869  82.4656 106.7146 0022416 179.1346 180.9778 12.45497852  9901,12.45497852,0.0022416,LEO
27875,USA 170,2003,1436.08,1156.0,+,10.02,Active,1,GSO,USA,USA,Military,Communications,Delta,1 27875U 03040A   25308.96865895  .00000138  00000+0  00000+0 0  9990,2 27875  10.0221  50.0247 0002666 202.3583 164.9598  1.00272753 30741,1.00272753,0.0002666,GSO
27939,MOZHAETS 4 (RS-22),2003,97.77,64.0,+,98.34,Active,1,LEO,Russia,Russia/USSR,Civil/Government,Technology Development,Kosmos,1 27939U 03042A   25309.35663376  .00001632  00000+0  26341-3 0  9997,2 27939  98.3371 122.5671 0010272 257.5808 218.9998 14.72801714182590,14.72801714,0.0010272,LEO
27944,LARETS,2003,98.37,-1.0,+,98.39,Active,0,LEO,Russia,Russia/USSR,Unknown,Unknown,Unknown,1 27944U 03042F   25309.25665531  .00000090  00000+0  26903-4 0  9999,2 27944  98.3879 102.1354 0012659  20.6750 339.4961 14.63805222180604,14.63805222,0.0012659,LEO
27954,GALAXY 13 (HORIZONS-1),2003,1436.09,4060.0,+,0.83,Active,1,GSO,Sea Launch Platform,USA,Commercial,Communications,Zenit,1 27954U 03044A   25309.25969642  .00000145  00000+0  00000+0 0  9998,2 27954   0.8365  86.9373 0001945 129.8755 131.4383  1.00272936 44329,1.00272936,0.0001945,GEO
28051,IRS-P6 (RESOURCESAT-1),2003,100.28,1360.0,+,98.22,Active,1,LEO,India,India,Government,Earth Observation,PSLV,1 28051U 03046A   25309.35891972  .00000177  00000+0  73432-4 0  9999,2 28051  98.2235 351.4868 0063031 294.3375  75.6817 14.36048322148402,14.36048322,0.0063031,LEO
28054,DMSP 5D-3 F16 (USA 172),2003,101.81,1154.0,B,99.01,Active,1,LEO,USA,USA,Military,Earth Observation,Titan,1 28054U 03048A   25309.30009259  .00000166  00000+0  11063-3 0  9997,2 28054  99.0081 326.4559 0008090  65.2609 104.4769 14.14403235137837,14.14403235,0.000809,LEO
28058,CHUANGXIN 1 (CX-1),2003,99.42,100.0,+,98.53,Active,1,LEO,PRC,China,Government,Communications,Long March,1 28058U 03049B   25309.22879476  .00000361  00000+0  10855-3 0  9994,2 28058  98.5258 201.4008 0013217 138.2561 221.9642 14.48412605163851,14.48412605,0.0013217,LEO
28089,YAMAL 202,2003,1436.11,1320.0,+,5.78,Active,1,GSO,Kazakhstan,Russia/USSR,Commercial,Communications,Proton,1 28089U 03053A   25308.57406093 -.00000065  00000+0  00000+0 0  9990,2 28089   5.7751  73.6629 0006560 161.4378 179.1878  1.00271209 80443,1.00271209,0.000656,GSO
28117,UFO 11 (USA 174),2003,1436.08,3200.0,+,8.73,Active,1,GSO,USA,USA,Military,Communications,Atlas,1 28117U 03057A   25308.78586361 -.00000094  00000+0  00000+0 0  9998,2 28117   8.7295  34.8637 0004760 197.9446 169.9522  1.00272633 80208,1.00272633,0.000476,GSO
28129,NAVSTAR 53 (USA 175),2003,747.36,-1.0,B,54.89,Active,0,MEO,USA,USA,Unknown,Unknown,Unknown,1 28129U 03058A   25307.80866193 -.00000075  00000+0  00000+0 0  9997,2 28129  54.8863  31.6230 0001940 290.8850  69.1230  1.92678423160122,1.92678423,0.000194,MEO
28158,USA 176 (DSP 22),2004,1436.17,2380.0,+,11.76,Active,1,GSO,USA,USA,Military,Earth Observation,Titan,1 28158U 04004A   25309.06570510 -.00000149  00000+0  00000+0 0  9998,2 28158  11.7559  27.6732 0004050 227.5288  76.4118  1.00266598 30685,1.00266598,0.000405,GSO
28184,ABS-4 (MOBISAT-1),2004,1436.08,4143.0,+,5.47,Active,1,GSO,USA,ABS,Commercial,Communications,Atlas,1 28184U 04007A   25308.97593898  .00000052  00000+0  00000+0 0  9995,2 28184   5.4726  74.7322 0006019 158.0375 224.0363  1.00273196 50092,1.00273196,0.0006019,GSO
28187,EUTELSAT 7A,2004,1436.07,4300.0,+,5.26,Active,1,GSO,Kazakhstan,EUTELSAT,Commercial,Communications,Proton,1 28187U 04008A   25309.26399409  .00000115  00000+0  00000+0 0  9994,2 28187   5.2596  74.6698 0001520 186.7664  99.1900  1.00274118 79100,1.00274118,0.000152,GSO
28190,NAVSTAR 54 (USA 177),2004,717.98,2217.0,+,55.02,Active,1,MEO,USA,USA,Commercial/Military,Navigation (Global or Regional Positioning),Delta,1 28190U 04009A   25309.05424472 -.00000029  00000+0  00000+0 0  9990,2 28190  55.0192 284.7374 0107901 166.9470 214.6535  2.00562078158459,2.00562078,0.0107901,MEO
28220,SHIYAN-1 (SY-1),2004,94.32,204.0,+,97.9,Active,1,LEO,PRC,China,Government,Earth Observation,Long March,1 28220U 04012A   25309.12532047  .00012646  00000+0  48355-3 0  9990,2 28220  97.8997   8.4764 0007877  89.4344 270.7796 15.26720279176828,15.26720279,0.0007877,LEO
28252,AMC-11,2004,1436.17,2340.0,+,0.02,Active,1,GSO,USA,SES,Commercial,Communications,Atlas,1 28252U 04017A   25309.01328782 -.00000037  00000+0  00000+0 0  9990,2 28252   0.0576  69.1348 0003453 161.3914  67.6871  1.00269988 78621,1.00269988,0.0003453,GEO
28358,INTELSAT 10-02,2004,1436.12,5576.0,+,0.01,Active,1,GSO,Kazakhstan,INTELSAT,Commercial,Communications,Proton,1 28358U 04022A   25309.10645497  .00000001  00000+0  00000+0 0  9998,2 28358   0.0421  72.8782 0001280 190.0947 178.9814  1.00270246 78308,1.00270246,0.000128,GEO
28361,NAVSTAR 55 (USA 178),2004,717.95,-1.0,B,54.71,Active,0,MEO,USA,USA,Unknown,Unknown,Unknown,1 28361U 04023A   25308.77699881  .00000033  00000+0  00000+0 0  9996,2 28361  54.7108  95.7849 0155090 295.1195  62.4769  2.00570708156534,2.00570708,0.015509,MEO
28366,APRIZESAT 2,2004,100.15,12.0,+,98.08,Active,1,LEO,Kazakhstan,USA,Commercial,Communications/Technology Development,Dnepr,1 28366U 04025A   25309.22824610  .00000383  00000+0  13236-3 0  9991,2 28366  98.0823 123.1614 0105271 205.7068 153.8866 14.37890571119451,14.37890571,0.0105271,LEO
28369,SAUDICOMSAT 1,2004,98.95,12.0,+,98.58,Active,1,LEO,Kazakhstan,Saudi Arabia,Commercial,Technology Development,Dnepr,1 28369U 04025D   25308.95473324  .00000573  00000+0  14309-3 0  9998,2 28369  98.5778 308.0766 0032158 352.5343   7.5370 14.55208489131517,14.55208489,0.0032158,LEO
28370,SAUDICOMSAT 2,2004,99.33,12.0,+,98.67,Active,1,LEO,Kazakhstan,Saudi Arabia,Commercial,Technology Development,Dnepr,1 28370U 04025E   25309.25385649  .00000435  00000+0  12339-3 0  9994,2 28370  98.6666 310.1797 0054985 216.9160 142.8244 14.49762694127655,14.49762694,0.0054985,LEO
28371,SAUDISAT 2,2004,98.87,35.0,+,98.54,Active,1,LEO,Kazakhstan,Saudi Arabia,Government,Earth Observation,Dnepr,1 28371U 04025F   25309.22544199  .00000468  00000+0  11607-3 0  9992,2 28371  98.5402 298.6006 0023563 264.6557  95.1951 14.56472366133142,14.56472366,0.0023563,LEO
28372,APRIZESAT 1,2004,99.2,12.0,+,98.63,Active,1,LEO,Kazakhstan,USA,Commercial,Communications/Technology Development,Dnepr,1 28372U 04025G   25308.94395245  .00000350  00000+0  98299-4 0  9990,2 28372  98.6316 308.5850 0045763 116.3895 244.2007 14.51583846129370,14.51583846,0.0045763,LEO
28376,AURA,2004,98.58,2967.0,+,98.31,Active,1,LEO,USA,USA,Government,Earth Observation,Delta,1 28376U 04026A   25309.18746262  .00001378  00000+0  29199-3 0  9994,2 28376  98.3121 259.2553 0001143  67.7496 292.3825 14.60806659133509,14.60806659,0.0001143,LEO
28378,ANIK F2,2004,1436.11,5910.0,+,2.7,Active,1,GSO,French Guiana,Canada,Commercial,Communications,Ariane,1 28378U 04027A   25309.12617817 -.00000037  00000+0  00000+0 0  9992,2 28378   2.7025  82.4331 0002762  95.4388 161.0800  1.00271198 39019,1.00271198,0.0002762,GSO
28380,COSMOS 2407,2004,104.63,-1.0,+,82.96,Active,0,LEO,Russia,Russia/USSR,Unknown,Unknown,Unknown,1 28380U 04028A   25309.23753323  .00000071  00000+0  56315-4 0  9993,2 28380  82.9608 240.6560 0039628 156.7918 313.8107 13.76307402 69072,13.76307402,0.0039628,LEO
28413,SHIJIAN-6 01A (SJ-6 01A),2004,95.12,-1.0,+,97.61,Active,1,LEO,PRC,China,Government,Space Science,Long March,1 28413U 04035A   25309.02847050  .00008302  00000+0  46246-3 0  9992,2 28413  97.6090 330.9010 0006540 176.2200 183.9082 15.13855830153504,15.1385583,0.000654,LEO
28414,SHIJIAN-6 01B (SJ-6 01B),2004,95.71,-1.0,+,97.62,Active,1,LEO,PRC,China,Government,Space Science,Long March,1 28414U 04035B   25309.33573056  .00005875  00000+0  42378-3 0  9993,2 28414  97.6200 325.1584 0005031 166.4913 193.6449 15.04495761153144,15.04495761,0.0005031,LEO
28419,COSMOS 2408,2004,115.6,225.0,+,82.48,Active,1,LEO,Russia,Russia/USSR,Military,Communications,Kosmos,1 28419U 04037A   25309.24564153  .00000009  00000+0 -83503-5 0  9990,2 28419  82.4804 106.1643 0016359  41.8442 318.3887 12.45673393960028,12.45673393,0.0016359,LEO
